STARLINK-1470           
1 45772U 20038AU  26068.60892913  .00054678  00000+0  19687-2 0  9990
2 45772  53.0480 174.6971 0002444  12.8687 347.2373 15.28074860317065
STARLINK-32094          
1 59696U 24086Q   26068.39579129 -.00001236  00000+0 -35419-4 0  9991
2 59696  43.0013  61.8558 0000827 278.2145  81.8613 15.27575061104064
